{
"type": "FeatureCollection",
"name": "vistorias_anonimizadas",
"crs": { "type": "name", "properties": { "name": "urn:ogc:def:crs:OGC:1.3:CRS84" } },
"features": [
{"type":"Feature","properties":{"id_ativo":"TUP_33001","nome_ativo":"Terminal Portuário de Ponta da Madeira","outorga":"TUP","status_op":"Operando Regularmente","conformidade":"Conforme","tipo_carga":"Granel Sólido","precisao_m":4,"data_vistoria":"2026-09-25","hora_vistoria":"14:30:00","observacoes":"Píer de atracação em plenas condições operacionais.","auditoria_gee":"Homologado GEE/SEPH"},"geometry":{"type":"Point","coordinates":[-44.368,-2.563]}},
{"type":"Feature","properties":{"id_ativo":"IP4_15002","nome_ativo":"Instalação Portuária de Pequeno Porte de Barcarena","outorga":"IP4","status_op":"Operação Parcial / Restrita","conformidade":"Atencao","tipo_carga":"Passageiros / Turismo","precisao_m":6,"data_vistoria":"2026-09-25","hora_vistoria":"15:10:00","observacoes":"Rampa de acesso com necessidade de manutenção no flutuante.","auditoria_gee":"Homologado GEE/SEPH"},"geometry":{"type":"Point","coordinates":[-48.625,-1.505]}},
{"type":"Feature","properties":{"id_ativo":"PUB_35003","nome_ativo":"Cais Público de Atracação","outorga":"PUBLICO","status_op":"Paralisado Temporariamente","conformidade":"Critico","tipo_carga":"Carga Geral","precisao_m":5,"data_vistoria":"2026-09-25","hora_vistoria":"16:00:00","observacoes":"Avarias estruturais severas no cabeço de amarração.","auditoria_gee":"Homologado GEE/SEPH"},"geometry":{"type":"Point","coordinates":[-46.305,-23.967]}}
]
}
